{"type": "FeatureCollection", "features": [ {"type": "Feature", "properties": {"norad_id": 65304, "name": "DRAGON CRS-33", "group": "stations", "lat": -13.517431729708912, "lon": -100.1492143653026, "alt_km": 420.2623203804487, "timestamp": "2025-12-27T14:26:29.277832+00:00", "meta": {"OBJECT_NAME": "DRAGON CRS-33", "OBJECT_ID": "2025-186A", "EPOCH": "2025-12-27T04:18:31.505184", "MEAN_MOTION": 15.49864323, "ECCENTRICITY": 0.00032283, "INCLINATION": 51.6319, "RA_OF_ASC_NODE": 70.9638, "ARG_OF_PERICENTER": 308.9173, "MEAN_ANOMALY": 51.1527, "EPHEMERIS_TYPE": 0, "CLASSIFICATION_TYPE": "U", "NORAD_CAT_ID": 65304, "ELEMENT_SET_NO": 999, "REV_AT_EPOCH": 11, "BSTAR": 0.0002516974, "MEAN_MOTION_DOT": 0.00013867, "MEAN_MOTION_DDOT": 0}, "tle": {"line1": "1 65304U 25186A   25361.17953131  .00013867  00000+0  25170-3 0  9999", "line2": "2 65304  51.6319  70.9638 0003228 308.9173  51.1527 15.49864323   112"}}, "geometry": {"type": "Point", "coordinates": [-100.1492143653026, -13.517431729708912]}}, {"type": "Feature", "properties": {"norad_id": 65586, "name": "PROGRESS-MS 32", "group": "stations", "lat": -13.517432226630111, "lon": -100.1492139416732, "alt_km": 420.26232040803916, "timestamp": "2025-12-27T14:26:29.277842+00:00", "meta": {"OBJECT_NAME": "PROGRESS-MS 32", "OBJECT_ID": "2025-204A", "EPOCH": "2025-12-27T04:18:31.505184", "MEAN_MOTION": 15.49864323, "ECCENTRICITY": 0.00032283, "INCLINATION": 51.6319, "RA_OF_ASC_NODE": 70.9638, "ARG_OF_PERICENTER": 308.9173, "MEAN_ANOMALY": 51.1527, "EPHEMERIS_TYPE": 0, "CLASSIFICATION_TYPE": "U", "NORAD_CAT_ID": 65586, "ELEMENT_SET_NO": 999, "REV_AT_EPOCH": 27, "BSTAR": 0.0002516974, "MEAN_MOTION_DOT": 0.00013867, "MEAN_MOTION_DDOT": 0}, "tle": {"line1": "1 65586U 25204A   25361.17953131  .00013867  00000+0  25170-3 0  9992", "line2": "2 65586  51.6319  70.9638 0003228 308.9173  51.1527 15.49864323   271"}}, "geometry": {"type": "Point", "coordinates": [-100.1492139416732, -13.517432226630111]}}, {"type": "Feature", "properties": {"norad_id": 65616, "name": "CYGNUS NG-23", "group": "stations", "lat": -13.517432673858446, "lon": -100.14921356040739, "alt_km": 420.26232043286564, "timestamp": "2025-12-27T14:26:29.277851+00:00", "meta": {"OBJECT_NAME": "CYGNUS NG-23", "OBJECT_ID": "2025-208A", "EPOCH": "2025-12-27T04:18:31.505184", "MEAN_MOTION": 15.49864323, "ECCENTRICITY": 0.00032283, "INCLINATION": 51.6319, "RA_OF_ASC_NODE": 70.9638, "ARG_OF_PERICENTER": 308.9173, "MEAN_ANOMALY": 51.1527, "EPHEMERIS_TYPE": 0, "CLASSIFICATION_TYPE": "U", "NORAD_CAT_ID": 65616, "ELEMENT_SET_NO": 999, "REV_AT_EPOCH": 22, "BSTAR": 0.0002516974, "MEAN_MOTION_DOT": 0.00013867, "MEAN_MOTION_DDOT": 0}, "tle": {"line1": "1 65616U 25208A   25361.17953131  .00013867  00000+0  25170-3 0  9990", "line2": "2 65616  51.6319  70.9638 0003228 308.9173  51.1527 15.49864323   220"}}, "geometry": {"type": "Point", "coordinates": [-100.14921356040739, -13.517432673858446]}}, {"type": "Feature", "properties": {"norad_id": 65729, "name": "DRAGONFLY", "group": "stations", "lat": 44.22157197165083, "lon": 109.83404894643195, "alt_km": 329.06542774058653, "timestamp": "2025-12-27T14:26:29.277862+00:00", "meta": {"OBJECT_NAME": "DRAGONFLY", "OBJECT_ID": "1998-067XH", "EPOCH": "2025-12-27T05:03:10.580832", "MEAN_MOTION": 15.77161756, "ECCENTRICITY": 0.00083257, "INCLINATION": 51.6248, "RA_OF_ASC_NODE": 61.3905, "ARG_OF_PERICENTER": 2.5372, "MEAN_ANOMALY": 357.5669, "EPHEMERIS_TYPE": 0, "CLASSIFICATION_TYPE": "U", "NORAD_CAT_ID": 65729, "ELEMENT_SET_NO": 999, "REV_AT_EPOCH": 1544, "BSTAR": 0.0013635881, "MEAN_MOTION_DOT": 0.00233999, "MEAN_MOTION_DDOT": 0}, "tle": {"line1": "1 65729U 98067XH  25361.21053913  .00233999  00000+0  13636-2 0  9995", "line2": "2 65729  51.6248  61.3905 0008325   2.5372 357.5669 15.77161756 15449"}}, "geometry": {"type": "Point", "coordinates": [109.83404894643195, 44.22157197165083]}}, {"type": "Feature", "properties": {"norad_id": 65731, "name": "1998-067XK", "group": "stations", "lat": 40.22574082295262, "lon": 103.75370190611606, "alt_km": 356.5684126226597, "timestamp": "2025-12-27T14:26:29.277875+00:00", "meta": {"OBJECT_NAME": "1998-067XK", "OBJECT_ID": "1998-067XK", "EPOCH": "2025-12-27T05:01:56.665632", "MEAN_MOTION": 15.68597171, "ECCENTRICITY": 0.00051245, "INCLINATION": 51.628, "RA_OF_ASC_NODE": 63.6686, "ARG_OF_PERICENTER": 335.1476, "MEAN_ANOMALY": 24.9273, "EPHEMERIS_TYPE": 0, "CLASSIFICATION_TYPE": "U", "NORAD_CAT_ID": 65731, "ELEMENT_SET_NO": 999, "REV_AT_EPOCH": 1541, "BSTAR": 0.00095352598, "MEAN_MOTION_DOT": 0.00111483, "MEAN_MOTION_DDOT": 0}, "tle": {"line1": "1 65731U 98067XK  25361.20968363  .00111483  00000+0  95353-3 0  9991", "line2": "2 65731  51.6280  63.6686 0005124 335.1476  24.9273 15.68597171 15410"}}, "geometry": {"type": "Point", "coordinates": [103.75370190611606, 40.22574082295262]}}, {"type": "Feature", "properties": {"norad_id": 65732, "name": "RSP-03", "group": "stations", "lat": -21.646983400620666, "lon": -101.08365749050748, "alt_km": 357.45251510404614, "timestamp": "2025-12-27T14:26:29.277885+00:00", "meta": {"OBJECT_NAME": "RSP-03", "OBJECT_ID": "1998-067XL", "EPOCH": "2025-12-27T04:24:34.201152", "MEAN_MOTION": 15.72475718, "ECCENTRICITY": 0.0006157, "INCLINATION": 51.626, "RA_OF_ASC_NODE": 62.7293, "ARG_OF_PERICENTER": 342.7468, "MEAN_ANOMALY": 17.332, "EPHEMERIS_TYPE": 0, "CLASSIFICATION_TYPE": "U", "NORAD_CAT_ID": 65732, "ELEMENT_SET_NO": 999, "REV_AT_EPOCH": 1543, "BSTAR": 0.0012339833, "MEAN_MOTION_DOT": 0.00171198, "MEAN_MOTION_DDOT": 0}, "tle": {"line1": "1 65732U 98067XL  25361.18372918  .00171198  00000+0  12340-2 0  9997", "line2": "2 65732  51.6260  62.7293 0006157 342.7468  17.3320 15.72475718 15433"}}, "geometry": {"type": "Point", "coordinates": [-101.08365749050748, -21.646983400620666]}}, {"type": "Feature", "properties": {"norad_id": 65733, "name": "GHS-01", "group": "stations", "lat": 3.587385479862812, "lon": -124.45397354549266, "alt_km": 331.1273595925204, "timestamp": "2025-12-27T14:26:29.277896+00:00", "meta": {"OBJECT_NAME": "GHS-01", "OBJECT_ID": "1998-067XM", "EPOCH": "2025-12-26T21:01:30.345024", "MEAN_MOTION": 15.81574264, "ECCENTRICITY": 0.0009494, "INCLINATION": 51.6277, "RA_OF_ASC_NODE": 62.1658, "ARG_OF_PERICENTER": 4.8401, "MEAN_ANOMALY": 355.2691, "EPHEMERIS_TYPE": 0, "CLASSIFICATION_TYPE": "U", "NORAD_CAT_ID": 65733, "ELEMENT_SET_NO": 999, "REV_AT_EPOCH": 1541, "BSTAR": 0.0015055, "MEAN_MOTION_DOT": 0.00319127, "MEAN_MOTION_DDOT": 0}, "tle": {"line1": "1 65733U 98067XM  25360.87604566  .00319127  00000+0  15055-2 0  9992", "line2": "2 65733  51.6277  62.1658 0009494   4.8401 355.2691 15.81574264 15410"}}, "geometry": {"type": "Point", "coordinates": [-124.45397354549266, 3.587385479862812]}}, {"type": "Feature", "properties": {"norad_id": 65941, "name": "YOTSUBA-KULOVER", "group": "stations", "lat": 2.572783992158028, "lon": -116.870983660535, "alt_km": 385.57029038461224, "timestamp": "2025-12-27T14:26:29.277908+00:00", "meta": {"OBJECT_NAME": "YOTSUBA-KULOVER", "OBJECT_ID": "1998-067XN", "EPOCH": "2025-12-27T06:00:30.216672", "MEAN_MOTION": 15.61434985, "ECCENTRICITY": 0.00027547, "INCLINATION": 51.629, "RA_OF_ASC_NODE": 66.9415, "ARG_OF_PERICENTER": 9.199, "MEAN_ANOMALY": 350.9054, "EPHEMERIS_TYPE": 0, "CLASSIFICATION_TYPE": "U", "NORAD_CAT_ID": 65941, "ELEMENT_SET_NO": 999, "REV_AT_EPOCH": 1212, "BSTAR": 0.00083629815, "MEAN_MOTION_DOT": 0.00072986, "MEAN_MOTION_DDOT": 0}, "tle": {"line1": "1 65941U 98067XN  25361.25034973  .00072986  00000+0  83630-3 0  9999", "line2": "2 65941  51.6290  66.9415 0002754   9.1990 350.9054 15.61434985 12125"}}, "geometry": {"type": "Point", "coordinates": [-116.870983660535, 2.572783992158028]}}, {"type": "Feature", "properties": {"norad_id": 65942, "name": "BOTAN", "group": "stations", "lat": -0.9895201833304101, "lon": 63.25320532336765, "alt_km": 368.48392167150996, "timestamp": "2025-12-27T14:26:29.277919+00:00", "meta": {"OBJECT_NAME": "BOTAN", "OBJECT_ID": "1998-067XP", "EPOCH": "2025-12-27T05:15:28.443744", "MEAN_MOTION": 15.66006349, "ECCENTRICITY": 0.00036864, "INCLINATION": 51.6275, "RA_OF_ASC_NODE": 65.9806, "ARG_OF_PERICENTER": 351.9823, "MEAN_ANOMALY": 8.1114, "EPHEMERIS_TYPE": 0, "CLASSIFICATION_TYPE": "U", "NORAD_CAT_ID": 65942, "ELEMENT_SET_NO": 999, "REV_AT_EPOCH": 1213, "BSTAR": 0.0011595855, "MEAN_MOTION_DOT": 0.00122237, "MEAN_MOTION_DDOT": 0}, "tle": {"line1": "1 65942U 98067XP  25361.21907921  .00122237  00000+0  11596-2 0  9994", "line2": "2 65942  51.6275  65.9806 0003686 351.9823   8.1114 15.66006349 12134"}}, "geometry": {"type": "Point", "coordinates": [63.25320532336765, -0.9895201833304101]}}, {"type": "Feature", "properties": {"norad_id": 65943, "name": "E-KAGAKU-1", "group": "stations", "lat": 2.927467535839569, "lon": -117.14829398924951, "alt_km": 384.66391978011416, "timestamp": "2025-12-27T14:26:29.277929+00:00", "meta": {"OBJECT_NAME": "E-KAGAKU-1", "OBJECT_ID": "1998-067XQ", "EPOCH": "2025-12-26T11:34:38.215200", "MEAN_MOTION": 15.61326456, "ECCENTRICITY": 0.00014737, "INCLINATION": 51.6304, "RA_OF_ASC_NODE": 70.8185, "ARG_OF_PERICENTER": 333.5123, "MEAN_ANOMALY": 26.5795, "EPHEMERIS_TYPE": 0, "CLASSIFICATION_TYPE": "U", "NORAD_CAT_ID": 65943, "ELEMENT_SET_NO": 999, "REV_AT_EPOCH": 1200, "BSTAR": 0.0007949653, "MEAN_MOTION_DOT": 0.00069021, "MEAN_MOTION_DDOT": 0}, "tle": {"line1": "1 65943U 98067XQ  25360.48238675  .00069021  00000+0  79497-3 0  9992", "line2": "2 65943  51.6304  70.8185 0001473 333.5123  26.5795 15.61326456 12008"}}, "geometry": {"type": "Point", "coordinates": [-117.14829398924951, 2.927467535839569]}}]}